S-NET B                 
1 43187U 18014H   26068.94812495  .00007649  00000+0  40571-3 0  9996
2 43187  97.5436 334.3767 0009334   8.7272 351.4121 15.15604995443729
JILIN-1 GAOFEN 2B       
1 44836U 19086A   26068.94654977  .00008807  00000+0  41762-3 0  9997
2 44836  97.4960 141.6146 0013140 308.9475  51.0588 15.19449314345415
