[{"OBJECT_NAME":"S-NET B","OBJECT_ID":"2018-014H","EPOCH":"2026-03-09T22:45:17.995680","MEAN_MOTION":15.15604995,"ECCENTRICITY":0.0009334,"INCLINATION":97.5436,"RA_OF_ASC_NODE":334.3767,"ARG_OF_PERICENTER":8.7272,"MEAN_ANOMALY":351.4121,"EPHEMERIS_TYPE":0,"CLASSIFICATION_TYPE":"U","NORAD_CAT_ID":43187,"ELEMENT_SET_NO":999,"REV_AT_EPOCH":44372,"BSTAR":0.00040571081,"MEAN_MOTION_DOT":7.649e-5,"MEAN_MOTION_DDOT":0},{"OBJECT_NAME":"JILIN-1 GAOFEN 2B","OBJECT_ID":"2019-086A","EPOCH":"2026-03-09T22:43:01.900128","MEAN_MOTION":15.19449314,"ECCENTRICITY":0.001314,"INCLINATION":97.496,"RA_OF_ASC_NODE":141.6146,"ARG_OF_PERICENTER":308.9475,"MEAN_ANOMALY":51.0588,"EPHEMERIS_TYPE":0,"CLASSIFICATION_TYPE":"U","NORAD_CAT_ID":44836,"ELEMENT_SET_NO":999,"REV_AT_EPOCH":34541,"BSTAR":0.00041762488,"MEAN_MOTION_DOT":8.807e-5,"MEAN_MOTION_DDOT":0}]
